STARLINK-37010          
1 68289U 26055AD  26090.25002315 -.01749694  84427-3 -53322-2 0  9993
2 68289  53.1576 229.1236 0000676  72.1768 267.9354 15.91435292  3108
STARLINK-37151          
1 68290U 26055AE  26090.25002315 -.01758395  85274-3 -53355-2 0  9990
2 68290  53.1571 229.1167 0000541  78.8541 264.7499 15.91520879  3102
STRIX-6                 
1 68291U 26056A   26090.11157561  .00006320  00000+0  52653-3 0  9993
2 68291  50.2845 358.7202 0016571 304.8144  55.1245 14.99636442  1554
ELECTRON R/B            
1 68292U 26056B   26090.18029615  .09195672  12061-4  58218-3 0  9995
2 68292  50.2498 351.4745 0095099 288.2713  70.7957 16.24789301  1657
ELECTRON KICK STAGE R/B 
1 68293U 26056C   26090.23697991  .00099050  00000+0  15582-2 0  9995
2 68293  50.2925 355.0382 0155796  53.3516 308.1659 15.40152231  1620
STARLINK-37107          
1 68294U 26057A   26090.25002315 -.01195892  43752-3 -29396-2 0  9996
2 68294  97.2805 213.5745 0001494  54.3785  23.0927 15.96104464  2622
STARLINK-37147          
1 68295U 26057B   26090.25002315 -.01217203  45250-3 -29775-2 0  9994
2 68295  97.2800 213.5753 0001473  53.4058  27.1340 15.96197694  2617
STARLINK-37142          
1 68296U 26057C   26090.25002315 -.01313918  52290-3 -31652-2 0  9994
2 68296  97.2795 213.5794 0001614  51.2750  39.5224 15.96495140  2501
STARLINK-37115          
1 68297U 26057D   26090.25002315 -.01304861  51578-3 -31579-2 0  9998
2 68297  97.2794 213.5774 0001467  55.6487  31.9871 15.96408972  2501
STARLINK-36355          
1 68298U 26057E   26090.25002315 -.01248624  47487-3 -30380-2 0  9996
2 68298  97.2798 213.5764 0001402  59.9540  23.7864 15.96301973  2774
STARLINK-37118          
1 68299U 26057F   26090.25002315 -.01335620  53996-3 -31885-2 0  9993
2 68299  97.2790 213.5815 0001418  56.5413  41.4116 15.96665816  2612
STARLINK-36875          
1 68300U 26057G   26090.25002315 -.01331361  53629-3 -31931-2 0  9999
2 68300  97.2794 213.5801 0001534  55.4774  39.3590 15.96579405  2677
STARLINK-37099          
1 68301U 26057H   26090.25002315 -.01342961  54591-3 -31929-2 0  9994
2 68301  97.2787 213.5837 0001474  53.3606  48.8460 15.96742037  2509
STARLINK-37007          
1 68302U 26057J   26090.25002315 -.01347958  55058-3 -31781-2 0  9991
2 68302  97.2781 213.5868 0001531  53.4741  57.1415 15.96896580  2723
STARLINK-36300          
1 68303U 26057K   26090.25002315 -.01347094  54946-3 -31900-2 0  9991
2 68303  97.2784 213.5851 0001524  56.1781  50.5367 15.96816203  2777
STARLINK-36849          
1 68304U 26057L   26090.25002315 -.01352748  55475-3 -31738-2 0  9991
2 68304  97.2781 213.5884 0001569  58.2648  55.4648 15.96987411  2670
