[{"OBJECT_NAME":"STARLINK-37010","OBJECT_ID":"2026-055AD","EPOCH":"2026-03-31T06:00:02.000160","MEAN_MOTION":15.91435292,"ECCENTRICITY":6.766e-5,"INCLINATION":53.1576,"RA_OF_ASC_NODE":229.1236,"ARG_OF_PERICENTER":72.1768,"MEAN_ANOMALY":267.9354,"EPHEMERIS_TYPE":0,"CLASSIFICATION_TYPE":"U","NORAD_CAT_ID":68289,"ELEMENT_SET_NO":999,"REV_AT_EPOCH":310,"BSTAR":-0.0053321651,"MEAN_MOTION_DOT":-0.01749694,"MEAN_MOTION_DDOT":0.00084426858},{"OBJECT_NAME":"STARLINK-37151","OBJECT_ID":"2026-055AE","EPOCH":"2026-03-31T06:00:02.000160","MEAN_MOTION":15.91520879,"ECCENTRICITY":5.414e-5,"INCLINATION":53.1571,"RA_OF_ASC_NODE":229.1167,"ARG_OF_PERICENTER":78.8541,"MEAN_ANOMALY":264.7499,"EPHEMERIS_TYPE":0,"CLASSIFICATION_TYPE":"U","NORAD_CAT_ID":68290,"ELEMENT_SET_NO":999,"REV_AT_EPOCH":310,"BSTAR":-0.0053354851,"MEAN_MOTION_DOT":-0.01758395,"MEAN_MOTION_DDOT":0.00085273928},{"OBJECT_NAME":"STRIX-6","OBJECT_ID":"2026-056A","EPOCH":"2026-03-31T02:40:40.132704","MEAN_MOTION":14.99636442,"ECCENTRICITY":0.00165713,"INCLINATION":50.2845,"RA_OF_ASC_NODE":358.7202,"ARG_OF_PERICENTER":304.8144,"MEAN_ANOMALY":55.1245,"EPHEMERIS_TYPE":0,"CLASSIFICATION_TYPE":"U","NORAD_CAT_ID":68291,"ELEMENT_SET_NO":999,"REV_AT_EPOCH":155,"BSTAR":0.00052653363,"MEAN_MOTION_DOT":6.32e-5,"MEAN_MOTION_DDOT":0},{"OBJECT_NAME":"ELECTRON R/B","OBJECT_ID":"2026-056B","EPOCH":"2026-03-31T04:19:37.587360","MEAN_MOTION":16.24789301,"ECCENTRICITY":0.0095099,"INCLINATION":50.2498,"RA_OF_ASC_NODE":351.4745,"ARG_OF_PERICENTER":288.2713,"MEAN_ANOMALY":70.7957,"EPHEMERIS_TYPE":0,"CLASSIFICATION_TYPE":"U","NORAD_CAT_ID":68292,"ELEMENT_SET_NO":999,"REV_AT_EPOCH":165,"BSTAR":0.00058218,"MEAN_MOTION_DOT":0.09195672,"MEAN_MOTION_DDOT":1.2061e-5},{"OBJECT_NAME":"ELECTRON KICK STAGE R/B","OBJECT_ID":"2026-056C","EPOCH":"2026-03-31T05:41:15.064224","MEAN_MOTION":15.40152231,"ECCENTRICITY":0.01557964,"INCLINATION":50.2925,"RA_OF_ASC_NODE":355.0382,"ARG_OF_PERICENTER":53.3516,"MEAN_ANOMALY":308.1659,"EPHEMERIS_TYPE":0,"CLASSIFICATION_TYPE":"U","NORAD_CAT_ID":68293,"ELEMENT_SET_NO":999,"REV_AT_EPOCH":162,"BSTAR":0.0015582468,"MEAN_MOTION_DOT":0.0009905,"MEAN_MOTION_DDOT":0},{"OBJECT_NAME":"STARLINK-37107","OBJECT_ID":"2026-057A","EPOCH":"2026-03-31T06:00:02.000160","MEAN_MOTION":15.96104464,"ECCENTRICITY":0.00014941,"INCLINATION":97.2805,"RA_OF_ASC_NODE":213.5745,"ARG_OF_PERICENTER":54.3785,"MEAN_ANOMALY":23.0927,"EPHEMERIS_TYPE":0,"CLASSIFICATION_TYPE":"U","NORAD_CAT_ID":68294,"ELEMENT_SET_NO":999,"REV_AT_EPOCH":262,"BSTAR":-0.0029396124,"MEAN_MOTION_DOT":-0.01195892,"MEAN_MOTION_DDOT":0.00043751684},{"OBJECT_NAME":"STARLINK-37147","OBJECT_ID":"2026-057B","EPOCH":"2026-03-31T06:00:02.000160","MEAN_MOTION":15.96197694,"ECCENTRICITY":0.00014733,"INCLINATION":97.28,"RA_OF_ASC_NODE":213.5753,"ARG_OF_PERICENTER":53.4058,"MEAN_ANOMALY":27.134,"EPHEMERIS_TYPE":0,"CLASSIFICATION_TYPE":"U","NORAD_CAT_ID":68295,"ELEMENT_SET_NO":999,"REV_AT_EPOCH":261,"BSTAR":-0.0029775043,"MEAN_MOTION_DOT":-0.01217203,"MEAN_MOTION_DDOT":0.00045249917},{"OBJECT_NAME":"STARLINK-37142","OBJECT_ID":"2026-057C","EPOCH":"2026-03-31T06:00:02.000160","MEAN_MOTION":15.9649514,"ECCENTRICITY":0.00016142,"INCLINATION":97.2795,"RA_OF_ASC_NODE":213.5794,"ARG_OF_PERICENTER":51.275,"MEAN_ANOMALY":39.5224,"EPHEMERIS_TYPE":0,"CLASSIFICATION_TYPE":"U","NORAD_CAT_ID":68296,"ELEMENT_SET_NO":999,"REV_AT_EPOCH":250,"BSTAR":-0.0031651762,"MEAN_MOTION_DOT":-0.01313918,"MEAN_MOTION_DDOT":0.00052289689},{"OBJECT_NAME":"STARLINK-37115","OBJECT_ID":"2026-057D","EPOCH":"2026-03-31T06:00:02.000160","MEAN_MOTION":15.96408972,"ECCENTRICITY":0.00014679,"INCLINATION":97.2794,"RA_OF_ASC_NODE":213.5774,"ARG_OF_PERICENTER":55.6487,"MEAN_ANOMALY":31.9871,"EPHEMERIS_TYPE":0,"CLASSIFICATION_TYPE":"U","NORAD_CAT_ID":68297,"ELEMENT_SET_NO":999,"REV_AT_EPOCH":250,"BSTAR":-0.0031578931,"MEAN_MOTION_DOT":-0.01304861,"MEAN_MOTION_DDOT":0.00051577551},{"OBJECT_NAME":"STARLINK-36355","OBJECT_ID":"2026-057E","EPOCH":"2026-03-31T06:00:02.000160","MEAN_MOTION":15.96301973,"ECCENTRICITY":0.0001402,"INCLINATION":97.2798,"RA_OF_ASC_NODE":213.5764,"ARG_OF_PERICENTER":59.954,"MEAN_ANOMALY":23.7864,"EPHEMERIS_TYPE":0,"CLASSIFICATION_TYPE":"U","NORAD_CAT_ID":68298,"ELEMENT_SET_NO":999,"REV_AT_EPOCH":277,"BSTAR":-0.0030380076,"MEAN_MOTION_DOT":-0.01248624,"MEAN_MOTION_DDOT":0.00047486964},{"OBJECT_NAME":"STARLINK-37118","OBJECT_ID":"2026-057F","EPOCH":"2026-03-31T06:00:02.000160","MEAN_MOTION":15.96665816,"ECCENTRICITY":0.00014185,"INCLINATION":97.279,"RA_OF_ASC_NODE":213.5815,"ARG_OF_PERICENTER":56.5413,"MEAN_ANOMALY":41.4116,"EPHEMERIS_TYPE":0,"CLASSIFICATION_TYPE":"U","NORAD_CAT_ID":68299,"ELEMENT_SET_NO":999,"REV_AT_EPOCH":261,"BSTAR":-0.0031884885,"MEAN_MOTION_DOT":-0.0133562,"MEAN_MOTION_DDOT":0.00053996404},{"OBJECT_NAME":"STARLINK-36875","OBJECT_ID":"2026-057G","EPOCH":"2026-03-31T06:00:02.000160","MEAN_MOTION":15.96579405,"ECCENTRICITY":0.0001534,"INCLINATION":97.2794,"RA_OF_ASC_NODE":213.5801,"ARG_OF_PERICENTER":55.4774,"MEAN_ANOMALY":39.359,"EPHEMERIS_TYPE":0,"CLASSIFICATION_TYPE":"U","NORAD_CAT_ID":68300,"ELEMENT_SET_NO":999,"REV_AT_EPOCH":267,"BSTAR":-0.0031930762,"MEAN_MOTION_DOT":-0.01331361,"MEAN_MOTION_DDOT":0.00053629062},{"OBJECT_NAME":"STARLINK-37099","OBJECT_ID":"2026-057H","EPOCH":"2026-03-31T06:00:02.000160","MEAN_MOTION":15.96742037,"ECCENTRICITY":0.0001474,"INCLINATION":97.2787,"RA_OF_ASC_NODE":213.5837,"ARG_OF_PERICENTER":53.3606,"MEAN_ANOMALY":48.846,"EPHEMERIS_TYPE":0,"CLASSIFICATION_TYPE":"U","NORAD_CAT_ID":68301,"ELEMENT_SET_NO":999,"REV_AT_EPOCH":250,"BSTAR":-0.0031929426,"MEAN_MOTION_DOT":-0.01342961,"MEAN_MOTION_DDOT":0.00054591184},{"OBJECT_NAME":"STARLINK-37007","OBJECT_ID":"2026-057J","EPOCH":"2026-03-31T06:00:02.000160","MEAN_MOTION":15.9689658,"ECCENTRICITY":0.00015311,"INCLINATION":97.2781,"RA_OF_ASC_NODE":213.5868,"ARG_OF_PERICENTER":53.4741,"MEAN_ANOMALY":57.1415,"EPHEMERIS_TYPE":0,"CLASSIFICATION_TYPE":"U","NORAD_CAT_ID":68302,"ELEMENT_SET_NO":999,"REV_AT_EPOCH":272,"BSTAR":-0.0031781289,"MEAN_MOTION_DOT":-0.01347958,"MEAN_MOTION_DDOT":0.0005505834},{"OBJECT_NAME":"STARLINK-36300","OBJECT_ID":"2026-057K","EPOCH":"2026-03-31T06:00:02.000160","MEAN_MOTION":15.96816203,"ECCENTRICITY":0.00015246,"INCLINATION":97.2784,"RA_OF_ASC_NODE":213.5851,"ARG_OF_PERICENTER":56.1781,"MEAN_ANOMALY":50.5367,"EPHEMERIS_TYPE":0,"CLASSIFICATION_TYPE":"U","NORAD_CAT_ID":68303,"ELEMENT_SET_NO":999,"REV_AT_EPOCH":277,"BSTAR":-0.0031899773,"MEAN_MOTION_DOT":-0.01347094,"MEAN_MOTION_DDOT":0.00054945846},{"OBJECT_NAME":"STARLINK-36849","OBJECT_ID":"2026-057L","EPOCH":"2026-03-31T06:00:02.000160","MEAN_MOTION":15.96987411,"ECCENTRICITY":0.00015696,"INCLINATION":97.2781,"RA_OF_ASC_NODE":213.5884,"ARG_OF_PERICENTER":58.2648,"MEAN_ANOMALY":55.4648,"EPHEMERIS_TYPE":0,"CLASSIFICATION_TYPE":"U","NORAD_CAT_ID":68304,"ELEMENT_SET_NO":999,"REV_AT_EPOCH":267,"BSTAR":-0.0031738012,"MEAN_MOTION_DOT":-0.01352748,"MEAN_MOTION_DDOT":0.00055474638}]
